IRIDIUM 155             
1 43573U 18061E   19084.51220436  .00000048  00000-0  10189-4 0  9998
2 43573  86.3926  80.2778 0002149  68.7234 291.4191 14.34216888 34870
IRIDIUM 154             
1 43574U 18061F   19084.49317651  .00000063  00000-0  15562-4 0  9999
2 43574  86.3930  80.2946 0002534  94.5942 265.5543 14.34217379 34918
IRIDIUM 163             
1 43575U 18061G   19084.54391428  .00000041  00000-0  74083-5 0  9990
2 43575  86.3928  80.2685 0001815 109.4672 250.6720 14.34218777 34895
IRIDIUM 156             
1 43576U 18061H   19084.51855549  .00000049  00000-0  10367-4 0  9999
2 43576  86.3928  80.2834 0001781  87.5529 272.5870 14.34216661 34878
IRIDIUM 164             
1 43577U 18061J   19084.49954100  .00000050  00000-0  10823-4 0  9999
2 43577  86.3929  80.2918 0002298  95.5817 264.5640 14.34217655 34922
IRIDIUM 159             
1 43578U 18061K   19084.53757115  .00000046  00000-0  93885-5 0  9997
2 43578  86.3927  80.2680 0002368  92.7384 267.4083 14.34217356 34890
IRIDIUM 180             
1 43922U 19002A   19084.53706892  .00000055  00000-0  12620-4 0  9999
2 43922  86.4019  17.0874 0002969 111.3034 248.8479 14.34216024 10545
IRIDIUM 176             
1 43923U 19002B   19084.54556803  .00000143  00000-0  18816-4 0  9997
2 43923  86.6153  17.0992 0002115  86.7989 273.3470 14.72249657 10730
IRIDIUM 168             
1 43924U 19002C   19084.53074073  .00000074  00000-0  19356-4 0  9994
2 43924  86.4022  17.0926 0002469  92.2042 267.9437 14.34217744 10489
IRIDIUM 173             
1 43925U 19002D   19084.51805436  .00000064  00000-0  15673-4 0  9995
2 43925  86.4018  17.0939 0002300  90.0639 270.0821 14.34217933 10472
IRIDIUM 169             
1 43926U 19002E   19084.49813615  .00000061  00000-0  13833-4 0  9994
2 43926  87.4086  22.6081 0004452  54.6254 305.5361 14.38613913 10574
IRIDIUM 172             
1 43927U 19002F   19084.51169100  .00000039  00000-0  69704-5 0  9995
2 43927  86.4018  17.0961 0002403  94.1612 265.9858 14.34215662 10479
IRIDIUM 175             
1 43928U 19002G   19084.53934869  .00000132  00000-0  17067-4 0  9998
2 43928  86.6136  17.0823 0003271  68.4248 291.7317 14.72259667 10723
IRIDIUM 171             
1 43929U 19002H   19084.49267911  .00000044  00000-0  85253-5 0  9996
2 43929  86.4028  17.1169 0002438  90.9328 269.2147 14.34218679 10467
IRIDIUM 170             
1 43930U 19002J   19084.48377296  .00000135  00000-0  17564-4 0  9995
2 43930  86.6152  17.1328 0002275  74.1349 286.0118 14.72249721 10731
IRIDIUM 167             
1 43931U 19002K   19084.55610749  .00000079  00000-0  21088-4 0  9990
2 43931  86.4019  17.0770 0002961 107.9525 252.1994 14.34217998 10471
